[{"OBJECT_NAME":"STARLINK-1972","OBJECT_ID":"2021-012H","EPOCH":"2026-03-09T23:15:16.577568","MEAN_MOTION":15.46891946,"ECCENTRICITY":0.00038028,"INCLINATION":53.0542,"RA_OF_ASC_NODE":323.2416,"ARG_OF_PERICENTER":161.9616,"MEAN_ANOMALY":198.1527,"EPHEMERIS_TYPE":0,"CLASSIFICATION_TYPE":"U","NORAD_CAT_ID":47627,"ELEMENT_SET_NO":999,"REV_AT_EPOCH":28150,"BSTAR":0.001273526,"MEAN_MOTION_DOT":0.00065229,"MEAN_MOTION_DDOT":0},{"OBJECT_NAME":"TRANSPORTER-12 OBJECT M","OBJECT_ID":"2025-009M","EPOCH":"2026-03-09T18:04:47.718048","MEAN_MOTION":15.47061993,"ECCENTRICITY":0.00032421,"INCLINATION":97.3973,"RA_OF_ASC_NODE":155.5568,"ARG_OF_PERICENTER":277.4254,"MEAN_ANOMALY":82.6627,"EPHEMERIS_TYPE":0,"CLASSIFICATION_TYPE":"U","NORAD_CAT_ID":62620,"ELEMENT_SET_NO":999,"REV_AT_EPOCH":6401,"BSTAR":0.0012092912,"MEAN_MOTION_DOT":0.00061492,"MEAN_MOTION_DDOT":0}]
